[Satellite]
VERSION=1.1
NAME=COSMO-SKYMED 1
NICKNAME=COSMO-SKYMED 1
TLE1=1 31598U 07023A   20158.06860615 -.00000019  00000-0  42259-5 0  9994
TLE2=2 31598  97.8848 341.4096 0001427  91.2774 268.8614 14.82156656703147
STATUS=0
